[{"OBJECT_NAME":"SL-8 R/B","OBJECT_ID":"1991-006B","EPOCH":"2026-04-09T06:41:38.302656","MEAN_MOTION":13.77499841,"ECCENTRICITY":0.00212222,"INCLINATION":82.9425,"RA_OF_ASC_NODE":147.3015,"ARG_OF_PERICENTER":311.9178,"MEAN_ANOMALY":119.0246,"EPHEMERIS_TYPE":0,"CLASSIFICATION_TYPE":"U","NORAD_CAT_ID":21088,"ELEMENT_SET_NO":999,"REV_AT_EPOCH":76828,"BSTAR":9.6136103e-5,"MEAN_MOTION_DOT":1.11e-6,"MEAN_MOTION_DDOT":0},{"OBJECT_NAME":"OKEAN-3","OBJECT_ID":"1991-039A","EPOCH":"2026-04-08T23:58:43.104864","MEAN_MOTION":15.04994982,"ECCENTRICITY":0.00133296,"INCLINATION":82.5158,"RA_OF_ASC_NODE":307.4714,"ARG_OF_PERICENTER":224.2103,"MEAN_ANOMALY":135.806,"EPHEMERIS_TYPE":0,"CLASSIFICATION_TYPE":"U","NORAD_CAT_ID":21397,"ELEMENT_SET_NO":999,"REV_AT_EPOCH":86959,"BSTAR":0.00014454866,"MEAN_MOTION_DOT":2.081e-5,"MEAN_MOTION_DDOT":0},{"OBJECT_NAME":"COSMOS 2151","OBJECT_ID":"1991-042A","EPOCH":"2026-04-09T07:10:30.333216","MEAN_MOTION":15.00251346,"ECCENTRICITY":0.00112888,"INCLINATION":82.4965,"RA_OF_ASC_NODE":54.1422,"ARG_OF_PERICENTER":323.1799,"MEAN_ANOMALY":36.8649,"EPHEMERIS_TYPE":0,"CLASSIFICATION_TYPE":"U","NORAD_CAT_ID":21422,"ELEMENT_SET_NO":999,"REV_AT_EPOCH":86778,"BSTAR":0.00018326394,"MEAN_MOTION_DOT":2.322e-5,"MEAN_MOTION_DDOT":0},{"OBJECT_NAME":"SL-14 R/B","OBJECT_ID":"1991-042B","EPOCH":"2026-04-09T06:41:54.511296","MEAN_MOTION":14.81862194,"ECCENTRICITY":0.00181085,"INCLINATION":82.496,"RA_OF_ASC_NODE":191.5064,"ARG_OF_PERICENTER":137.1536,"MEAN_ANOMALY":223.1093,"EPHEMERIS_TYPE":0,"CLASSIFICATION_TYPE":"U","NORAD_CAT_ID":21423,"ELEMENT_SET_NO":999,"REV_AT_EPOCH":85760,"BSTAR":5.0897847e-5,"MEAN_MOTION_DOT":4.27e-6,"MEAN_MOTION_DDOT":0},{"OBJECT_NAME":"ERS-1","OBJECT_ID":"1991-050A","EPOCH":"2026-04-09T00:05:35.603520","MEAN_MOTION":14.39474062,"ECCENTRICITY":0.00330576,"INCLINATION":98.7854,"RA_OF_ASC_NODE":117.9977,"ARG_OF_PERICENTER":111.7839,"MEAN_ANOMALY":248.6871,"EPHEMERIS_TYPE":0,"CLASSIFICATION_TYPE":"U","NORAD_CAT_ID":21574,"ELEMENT_SET_NO":999,"REV_AT_EPOCH":82009,"BSTAR":0.00010071916,"MEAN_MOTION_DOT":2.7e-6,"MEAN_MOTION_DDOT":0},{"OBJECT_NAME":"ARIANE 40 R/B","OBJECT_ID":"1991-050F","EPOCH":"2026-04-09T02:54:51.058656","MEAN_MOTION":14.42917313,"ECCENTRICITY":0.0002821,"INCLINATION":98.195,"RA_OF_ASC_NODE":150.2062,"ARG_OF_PERICENTER":7.4809,"MEAN_ANOMALY":352.6424,"EPHEMERIS_TYPE":0,"CLASSIFICATION_TYPE":"U","NORAD_CAT_ID":21610,"ELEMENT_SET_NO":999,"REV_AT_EPOCH":82338,"BSTAR":8.7977712e-5,"MEAN_MOTION_DOT":2.52e-6,"MEAN_MOTION_DDOT":0},{"OBJECT_NAME":"INTERCOSMOS 25","OBJECT_ID":"1991-086A","EPOCH":"2026-04-08T22:49:37.449696","MEAN_MOTION":12.12105481,"ECCENTRICITY":0.1486112,"INCLINATION":82.6001,"RA_OF_ASC_NODE":291.7099,"ARG_OF_PERICENTER":51.7249,"MEAN_ANOMALY":320.8387,"EPHEMERIS_TYPE":0,"CLASSIFICATION_TYPE":"U","NORAD_CAT_ID":21819,"ELEMENT_SET_NO":999,"REV_AT_EPOCH":50035,"BSTAR":0.00014593,"MEAN_MOTION_DOT":7.76e-6,"MEAN_MOTION_DDOT":0},{"OBJECT_NAME":"SL-8 R/B","OBJECT_ID":"1992-008B","EPOCH":"2026-04-09T07:51:23.485824","MEAN_MOTION":13.75970132,"ECCENTRICITY":0.00355862,"INCLINATION":82.9252,"RA_OF_ASC_NODE":244.9827,"ARG_OF_PERICENTER":50.689,"MEAN_ANOMALY":329.2553,"EPHEMERIS_TYPE":0,"CLASSIFICATION_TYPE":"U","NORAD_CAT_ID":21876,"ELEMENT_SET_NO":999,"REV_AT_EPOCH":71363,"BSTAR":3.7101979e-5,"MEAN_MOTION_DOT":5.2e-7,"MEAN_MOTION_DDOT":0},{"OBJECT_NAME":"SL-8 R/B","OBJECT_ID":"1992-020B","EPOCH":"2026-04-09T02:07:16.208256","MEAN_MOTION":13.75550513,"ECCENTRICITY":0.00283361,"INCLINATION":82.9282,"RA_OF_ASC_NODE":131.1876,"ARG_OF_PERICENTER":210.4707,"MEAN_ANOMALY":166.9983,"EPHEMERIS_TYPE":0,"CLASSIFICATION_TYPE":"U","NORAD_CAT_ID":21938,"ELEMENT_SET_NO":999,"REV_AT_EPOCH":70531,"BSTAR":-1.4843904e-5,"MEAN_MOTION_DOT":1.0e-8,"MEAN_MOTION_DDOT":0},{"OBJECT_NAME":"USA 81","OBJECT_ID":"1992-023A","EPOCH":"2026-04-09T01:07:24.087648","MEAN_MOTION":14.32378372,"ECCENTRICITY":0.00013668,"INCLINATION":85.0036,"RA_OF_ASC_NODE":113.9189,"ARG_OF_PERICENTER":74.5537,"MEAN_ANOMALY":285.5807,"EPHEMERIS_TYPE":0,"CLASSIFICATION_TYPE":"U","NORAD_CAT_ID":21949,"ELEMENT_SET_NO":999,"REV_AT_EPOCH":9913,"BSTAR":4.9387532e-5,"MEAN_MOTION_DOT":1.53e-6,"MEAN_MOTION_DDOT":0},{"OBJECT_NAME":"COSMOS 2219","OBJECT_ID":"1992-076A","EPOCH":"2026-04-09T00:13:07.812480","MEAN_MOTION":14.14088064,"ECCENTRICITY":0.00175214,"INCLINATION":71.0596,"RA_OF_ASC_NODE":314.6907,"ARG_OF_PERICENTER":160.3522,"MEAN_ANOMALY":199.828,"EPHEMERIS_TYPE":0,"CLASSIFICATION_TYPE":"U","NORAD_CAT_ID":22219,"ELEMENT_SET_NO":999,"REV_AT_EPOCH":72266,"BSTAR":-1.30893e-5,"MEAN_MOTION_DOT":-7.2e-7,"MEAN_MOTION_DDOT":0},{"OBJECT_NAME":"SL-16 R/B","OBJECT_ID":"1992-076B","EPOCH":"2026-04-09T04:42:52.088544","MEAN_MOTION":14.16863191,"ECCENTRICITY":0.00111765,"INCLINATION":70.9977,"RA_OF_ASC_NODE":124.1143,"ARG_OF_PERICENTER":40.913,"MEAN_ANOMALY":24.4495,"EPHEMERIS_TYPE":0,"CLASSIFICATION_TYPE":"U","NORAD_CAT_ID":22220,"ELEMENT_SET_NO":999,"REV_AT_EPOCH":72615,"BSTAR":0.00010173818,"MEAN_MOTION_DOT":1.56e-6,"MEAN_MOTION_DDOT":0},{"OBJECT_NAME":"COSMOS 2221","OBJECT_ID":"1992-080A","EPOCH":"2026-04-09T03:10:30.553248","MEAN_MOTION":14.96343007,"ECCENTRICITY":0.00157242,"INCLINATION":82.5023,"RA_OF_ASC_NODE":249.9108,"ARG_OF_PERICENTER":90.8823,"MEAN_ANOMALY":269.4201,"EPHEMERIS_TYPE":0,"CLASSIFICATION_TYPE":"U","NORAD_CAT_ID":22236,"ELEMENT_SET_NO":999,"REV_AT_EPOCH":78534,"BSTAR":0.00015872842,"MEAN_MOTION_DOT":1.826e-5,"MEAN_MOTION_DDOT":0},{"OBJECT_NAME":"SL-16 R/B","OBJECT_ID":"1992-093B","EPOCH":"2026-04-08T23:40:11.515296","MEAN_MOTION":14.15455212,"ECCENTRICITY":0.00066252,"INCLINATION":71.021,"RA_OF_ASC_NODE":300.6669,"ARG_OF_PERICENTER":264.1769,"MEAN_ANOMALY":95.8599,"EPHEMERIS_TYPE":0,"CLASSIFICATION_TYPE":"U","NORAD_CAT_ID":22285,"ELEMENT_SET_NO":999,"REV_AT_EPOCH":71744,"BSTAR":-8.6953515e-5,"MEAN_MOTION_DOT":-2.17e-6,"MEAN_MOTION_DDOT":0},{"OBJECT_NAME":"COSMOS 2228","OBJECT_ID":"1992-094A","EPOCH":"2026-04-09T06:17:06.484704","MEAN_MOTION":14.97363751,"ECCENTRICITY":0.00176571,"INCLINATION":82.52,"RA_OF_ASC_NODE":208.0405,"ARG_OF_PERICENTER":194.6559,"MEAN_ANOMALY":165.4155,"EPHEMERIS_TYPE":0,"CLASSIFICATION_TYPE":"U","NORAD_CAT_ID":22286,"ELEMENT_SET_NO":999,"REV_AT_EPOCH":78063,"BSTAR":0.00018602335,"MEAN_MOTION_DOT":2.192e-5,"MEAN_MOTION_DDOT":0},{"OBJECT_NAME":"SL-16 R/B","OBJECT_ID":"1993-016B","EPOCH":"2026-04-09T02:24:35.197632","MEAN_MOTION":14.15311825,"ECCENTRICITY":0.00125122,"INCLINATION":71.007,"RA_OF_ASC_NODE":151.3139,"ARG_OF_PERICENTER":275.6229,"MEAN_ANOMALY":84.3467,"EPHEMERIS_TYPE":0,"CLASSIFICATION_TYPE":"U","NORAD_CAT_ID":22566,"ELEMENT_SET_NO":999,"REV_AT_EPOCH":70647,"BSTAR":0.00015190163,"MEAN_MOTION_DOT":2.48e-6,"MEAN_MOTION_DDOT":0},{"OBJECT_NAME":"COSMOS 2242","OBJECT_ID":"1993-024A","EPOCH":"2026-04-09T07:46:56.961696","MEAN_MOTION":14.96697233,"ECCENTRICITY":0.00158763,"INCLINATION":82.5183,"RA_OF_ASC_NODE":237.4068,"ARG_OF_PERICENTER":197.6355,"MEAN_ANOMALY":162.4318,"EPHEMERIS_TYPE":0,"CLASSIFICATION_TYPE":"U","NORAD_CAT_ID":22626,"ELEMENT_SET_NO":999,"REV_AT_EPOCH":78497,"BSTAR":0.00021161641,"MEAN_MOTION_DOT":2.447e-5,"MEAN_MOTION_DDOT":0}]
