SL-8 R/B                
1 21088U 91006B   26099.27891554  .00000111  00000+0  96136-4 0  9993
2 21088  82.9425 147.3015 0021222 311.9178 119.0246 13.77499841768288
OKEAN-3                 
1 21397U 91039A   26098.99911001  .00002081  00000+0  14455-3 0  9991
2 21397  82.5158 307.4714 0013329 224.2103 135.8060 15.04994982869592
COSMOS 2151             
1 21422U 91042A   26099.29896219  .00002322  00000+0  18326-3 0  9990
2 21422  82.4965  54.1422 0011288 323.1799  36.8649 15.00251346867788
SL-14 R/B               
1 21423U 91042B   26099.27910314  .00000427  00000+0  50898-4 0  9997
2 21423  82.4960 191.5064 0018108 137.1536 223.1093 14.81862194857603
ERS-1                   
1 21574U 91050A   26099.00388430  .00000270  00000+0  10072-3 0  9997
2 21574  98.7854 117.9977 0033057 111.7839 248.6871 14.39474062820096
ARIANE 40 R/B           
1 21610U 91050F   26099.12142429  .00000252  00000+0  87978-4 0  9997
2 21610  98.1950 150.2062 0002821   7.4809 352.6424 14.42917313823386
INTERCOSMOS 25          
1 21819U 91086A   26098.95112789  .00000776  00000+0  14593-3 0  9996
2 21819  82.6001 291.7099 1486112  51.7249 320.8387 12.12105481500357
SL-8 R/B                
1 21876U 92008B   26099.32735516  .00000052  00000+0  37102-4 0  9994
2 21876  82.9252 244.9827 0035586  50.6890 329.2553 13.75970132713632
SL-8 R/B                
1 21938U 92020B   26099.08838204  .00000001  00000+0 -14844-4 0  9991
2 21938  82.9282 131.1876 0028336 210.4707 166.9983 13.75550513705319
USA 81                  
1 21949U 92023A   26099.04680657  .00000153  00000+0  49388-4 0  9997
2 21949  85.0036 113.9189 0001366  74.5537 285.5807 14.32378372 99135
COSMOS 2219             
1 22219U 92076A   26099.00911820 -.00000072  00000+0 -13089-4 0  9992
2 22219  71.0596 314.6907 0017521 160.3522 199.8280 14.14088064722667
SL-16 R/B               
1 22220U 92076B   26099.19643621  .00000156  00000+0  10174-3 0  9997
2 22220  70.9977 124.1143 0011176  40.9130  24.4495 14.16863191726157
COSMOS 2221             
1 22236U 92080A   26099.13229807  .00001826  00000+0  15873-3 0  9995
2 22236  82.5023 249.9108 0015724  90.8823 269.4201 14.96343007785347
SL-16 R/B               
1 22285U 92093B   26098.98624439 -.00000217  00000+0 -86954-4 0  9999
2 22285  71.0210 300.6669 0006625 264.1769  95.8599 14.15455212717444
COSMOS 2228             
1 22286U 92094A   26099.26188061  .00002192  00000+0  18602-3 0  9995
2 22286  82.5200 208.0405 0017657 194.6559 165.4155 14.97363751780630
SL-16 R/B               
1 22566U 93016B   26099.10040738  .00000248  00000+0  15190-3 0  9991
2 22566  71.0070 151.3139 0012512 275.6229  84.3467 14.15311825706472
COSMOS 2242             
1 22626U 93024A   26099.32427039  .00002447  00000+0  21162-3 0  9993
2 22626  82.5183 237.4068 0015876 197.6355 162.4318 14.96697233784970
